NORAD_CAT_ID,OBJECT_NAME,OBJECT_TYPE,EPOCH,MEAN_MOTION,ECCENTRICITY,INCLINATION,RA_OF_ASC_NODE,ARG_OF_PERICENTER,MEAN_ANOMALY,BSTAR,MEAN_MOTION_DOT,MEAN_MOTION_DDOT,TLE_LINE0,TLE_LINE1,TLE_LINE2,SEMIMAJOR_AXIS,PERIOD,APOGEE,PERIGEE,DECAYED
53967.0,STARLINK-4634,PAYLOAD,2024-07-31 13:04:30,15.08842878,0.0001473,53.2131,335.4634,95.5606,264.5554,0.00018791,2.704e-05,0.0,0 STARLINK-4634,1 53967U 22125D   24213.54480322  .00002704  00000-0  18791-3 0  9994,2 53967  53.2131 335.4634 0001473  95.5606 264.5554 15.08842878100903,6917.872,95.437,540.756,538.718,0.0
53967.0,STARLINK-4634,PAYLOAD,2024-07-31 14:39:54,15.08840554,0.0001392,53.2132,335.167,91.6001,268.515,0.00019482,2.814e-05,0.0,0 STARLINK-4634,1 53967U 22125D   24213.61104370  .00002814  00000-0  19482-3 0  9998,2 53967  53.2132 335.1670 0001392  91.6001 268.5150 15.08840554100845,6917.879,95.438,540.707,538.781,0.0
53967.0,STARLINK-4634,PAYLOAD,2024-07-31 17:50:40,15.08839829,0.0001079,53.2161,334.5744,87.0877,273.0238,0.00019547,2.824e-05,0.0,0 STARLINK-4634,1 53967U 22125D   24213.74352454  .00002824  00000-0  19547-3 0  9993,2 53967  53.2161 334.5744 0001079  87.0877 273.0238 15.08839829100867,6917.881,95.438,540.492,538.999,0.0
53967.0,STARLINK-4634,PAYLOAD,2024-08-01 14:30:40,15.08854035,0.00014,53.2191,330.7065,105.1142,255.0006,0.00054749,8.439e-05,0.0,0 STARLINK-4634,1 53967U 22125D   24214.60464090  .00008439  00000-0  54749-3 0  9990,2 53967  53.2191 330.7065 0001400 105.1142 255.0006 15.08854035100992,6917.837,95.437,540.671,538.734,0.0
53967.0,STARLINK-4634,PAYLOAD,2024-08-01 17:41:27,15.0886062,0.0001429,53.2185,330.1114,103.2765,256.8386,0.00064264,9.96e-05,0.0,0 STARLINK-4634,1 53967U 22125D   24214.73711864  .00009960  00000-0  64264-3 0  9991,2 53967  53.2185 330.1114 0001429 103.2765 256.8386 15.08860620101083,6917.817,95.436,540.671,538.694,0.0
53967.0,STARLINK-4634,PAYLOAD,2024-08-02 12:46:04,15.08847715,0.0001567,53.2156,326.5401,96.3021,263.815,0.00017239,2.457e-05,0.0,0 STARLINK-4634,1 53967U 22125D   24215.53199867  .00002457  00000-0  17239-3 0  9997,2 53967  53.2156 326.5401 0001567  96.3021 263.8150 15.08847715101200,6917.857,95.437,540.806,538.638,0.0
53967.0,STARLINK-4634,PAYLOAD,2024-08-02 14:21:28,15.08843961,0.0001243,53.2175,326.2489,81.8936,278.2197,9.4522e-05,1.217e-05,0.0,0 STARLINK-4634,1 53967U 22125D   24215.59824120  .00001217  00000-0  94522-4 0  9994,2 53967  53.2175 326.2489 0001243  81.8936 278.2197 15.08843961101142,6917.868,95.437,540.593,538.873,0.0
53967.0,STARLINK-4634,PAYLOAD,2024-08-03 12:36:52,15.08827119,0.0001468,53.2176,322.0867,95.2604,264.8556,-0.00010424,-1.946e-05,0.0,0 STARLINK-4634,1 53967U 22125D   24216.52560340 -.00001946  00000-0 -10424-3 0  9998,2 53967  53.2176 322.0867 0001468  95.2604 264.8556 15.08827119101357,6917.92,95.438,540.8,538.769,0.0
53967.0,STARLINK-4634,PAYLOAD,2024-08-03 14:12:15,15.08833691,0.000139,53.2174,321.7908,93.0502,267.065,2.4202e-05,9.7e-07,0.0,0 STARLINK-4634,1 53967U 22125D   24216.59184347  .00000097  00000-0  24202-4 0  9998,2 53967  53.2174 321.7908 0001390  93.0502 267.0650 15.08833691101299,6917.9,95.438,540.726,538.803,0.0
53967.0,STARLINK-4634,PAYLOAD,2024-08-04 14:03:02,15.08842706,0.0001122,53.2157,317.3255,68.7233,291.3879,0.00034544,5.214e-05,0.0,0 STARLINK-4634,1 53967U 22125D   24217.58544743  .00005214  00000-0  34544-3 0  9993,2 53967  53.2157 317.3255 0001122  68.7233 291.3879 15.08842706101446,6917.872,95.437,540.513,538.961,0.0
53967.0,STARLINK-4634,PAYLOAD,2024-08-04 23:35:20,15.08873809,0.0001123,53.2171,315.5387,71.1401,288.9712,0.0012519,0.00019711,0.0,0 STARLINK-4634,1 53967U 22125D   24217.98288169  .00019711  00000-0  12519-2 0  9998,2 53967  53.2171 315.5387 0001123  71.1401 288.9712 15.08873809101574,6917.777,95.435,540.419,538.865,0.0
53967.0,STARLINK-4634,PAYLOAD,2024-08-05 12:18:26,15.08841783,0.0001496,53.2159,313.1647,81.9036,278.2126,9.059e-05,1.154e-05,0.0,0 STARLINK-4634,1 53967U 22125D   24218.51280503  .00001154  00000-0  90590-4 0  9991,2 53967  53.2159 313.1647 0001496  81.9036 278.2126 15.08841783101655,6917.875,95.437,540.775,538.705,0.0
53967.0,STARLINK-4634,PAYLOAD,2024-08-05 13:53:49,15.08851664,0.0001186,53.2153,312.8659,95.4467,264.666,0.00032279,4.855e-05,0.0,0 STARLINK-4634,1 53967U 22125D   24218.57904162  .00004855  00000-0  32279-3 0  9991,2 53967  53.2153 312.8659 0001186  95.4467 264.6660 15.08851664101596,6917.845,95.437,540.53,538.889,0.0
53967.0,STARLINK-4634,PAYLOAD,2024-08-05 23:26:07,15.08856672,0.0001596,53.2171,311.0847,87.5387,272.5788,0.00045738,7.002e-05,0.0,0 STARLINK-4634,1 53967U 22125D   24218.97647912  .00007002  00000-0  45738-3 0  9993,2 53967  53.2171 311.0847 0001596  87.5387 272.5788 15.08856672101722,6917.829,95.437,540.799,538.59,0.0
53967.0,STARLINK-4634,PAYLOAD,2024-08-06 12:09:13,15.08822124,0.000139,53.2145,308.704,98.8714,261.2436,-0.00012697,-2.307e-05,0.0,0 STARLINK-4634,1 53967U 22125D   24219.50640909 -.00002307  00000-0 -12697-3 0  9995,2 53967  53.2145 308.7040 0001390  98.8714 261.2436 15.08822124101801,6917.935,95.439,540.762,538.838,0.0
53967.0,STARLINK-4634,PAYLOAD,2024-08-06 13:44:36,15.08824778,0.0001356,53.216,308.4044,109.7161,250.3977,0.00044951,6.87e-05,0.0,0 STARLINK-4634,1 53967U 22125D   24219.57264901  .00006870  00000-0  44951-3 0  9991,2 53967  53.2160 308.4044 0001356 109.7161 250.3977 15.08824778101748,6917.927,95.439,540.73,538.854,0.0
53967.0,STARLINK-4634,PAYLOAD,2024-08-07 12:00:01,15.08859762,0.0001421,53.2151,304.2442,93.9729,266.1426,0.001485,0.00023438,0.0,0 STARLINK-4634,1 53967U 22125D   24220.50001177  .00023438  00000-0  14850-2 0  9993,2 53967  53.2151 304.2442 0001421  93.9729 266.1426 15.08859762101959,6917.82,95.436,540.668,538.702,0.0
53967.0,STARLINK-4634,PAYLOAD,2024-08-08 11:50:47,15.08848813,0.0001138,53.2155,299.784,110.3251,249.7864,0.0013793,0.00021737,0.0,0 STARLINK-4634,1 53967U 22125D   24221.49360606  .00021737  00000-0  13793-2 0  9992,2 53967  53.2155 299.7840 0001138 110.3251 249.7864 15.08848813102030,6917.853,95.437,540.506,538.931,0.0
53967.0,STARLINK-4634,PAYLOAD,2024-08-09 11:41:34,15.08844415,0.000121,53.2146,295.3234,75.3119,284.8007,0.00015656,2.205e-05,0.0,0 STARLINK-4634,1 53967U 22125D   24222.48720703  .00002205  00000-0  15656-3 0  9990,2 53967  53.2146 295.3234 0001210  75.3119 284.8007 15.08844415102250,6917.867,95.437,540.569,538.895,0.0
53967.0,STARLINK-4634,PAYLOAD,2024-08-09 14:52:20,15.08847407,0.0001243,53.2142,294.7278,76.5468,283.5662,0.00010943,1.454e-05,0.0,0 STARLINK-4634,1 53967U 22125D   24222.61968543  .00001454  00000-0  10943-3 0  9990,2 53967  53.2142 294.7278 0001243  76.5468 283.5662 15.08847407102205,6917.858,95.437,540.583,538.863,0.0
53967.0,STARLINK-4634,PAYLOAD,2024-08-10 05:10:49,15.08834929,0.0001274,53.2149,292.0487,76.807,283.3065,3.4449e-05,2.6e-06,0.0,0 STARLINK-4634,1 53967U 22125D   24223.21585156  .00000260  00000-0  34449-4 0  9994,2 53967  53.2149 292.0487 0001274  76.8070 283.3065 15.08834929102368,6917.896,95.438,540.642,538.88,0.0
53967.0,STARLINK-4634,PAYLOAD,2024-08-10 09:56:59,15.08829373,0.0001175,53.2159,291.1546,106.8494,253.2627,-9.7707e-05,-1.842e-05,0.0,0 STARLINK-4634,1 53967U 22125D   24223.41457326 -.00001842  00000-0 -97707-4 0  9998,2 53967  53.2159 291.1546 0001175 106.8494 253.2627 15.08829373102322,6917.913,95.438,540.591,538.965,0.0
53967.0,STARLINK-4634,PAYLOAD,2024-08-10 21:04:40,15.08844598,0.0001137,53.2163,289.0808,104.5903,255.5215,0.00015647,2.204e-05,0.0,0 STARLINK-4634,1 53967U 22125D   24223.87824983  .00002204  00000-0  15647-3 0  9998,2 53967  53.2163 289.0808 0001137 104.5903 255.5215 15.08844598102461,6917.866,95.437,540.518,538.945,0.0
53967.0,STARLINK-4634,PAYLOAD,2024-08-11 11:23:09,15.08842427,0.0001205,53.2145,286.4018,83.2962,276.8167,0.00012448,1.694e-05,0.0,0 STARLINK-4634,1 53967U 22125D   24224.47441181  .00001694  00000-0  12448-3 0  9998,2 53967  53.2145 286.4018 0001205  83.2962 276.8167 15.08842427102550,6917.873,95.437,540.572,538.904,0.0
53967.0,STARLINK-4634,PAYLOAD,2024-08-11 20:55:27,15.08856817,0.0001378,53.2169,284.6172,85.9068,274.2081,0.00030301,4.54e-05,0.0,0 STARLINK-4634,1 53967U 22125D   24224.87184394  .00004540  00000-0  30301-3 0  9993,2 53967  53.2169 284.6172 0001378  85.9068 274.2081 15.08856817102548,6917.829,95.436,540.647,538.741,0.0
53967.0,STARLINK-4634,PAYLOAD,2024-08-12 04:52:24,15.08833382,0.0001886,53.2175,283.131,110.2281,249.8914,0.00010505,1.384e-05,0.0,0 STARLINK-4634,1 53967U 22125D   24225.20305702  .00001384  00000-0  10505-3 0  9996,2 53967  53.2175 283.1310 0001886 110.2281 249.8914 15.08833382102664,6917.901,95.438,541.07,538.461,0.0
53967.0,STARLINK-4634,PAYLOAD,2024-08-12 09:38:32,15.08848529,0.0002044,53.2166,282.2369,109.1263,250.995,0.00031413,4.716e-05,0.0,0 STARLINK-4634,1 53967U 22125D   24225.40176999  .00004716  00000-0  31413-3 0  9995,2 53967  53.2166 282.2369 0002044 109.1263 250.9950 15.08848529102697,6917.854,95.437,541.133,538.305,0.0
53967.0,STARLINK-4634,PAYLOAD,2024-08-13 03:07:46,15.08868268,0.0002446,53.2184,278.9692,120.3864,239.737,0.00049701,7.637e-05,0.0,0 STARLINK-4634,1 53967U 22125D   24226.13039455  .00007637  00000-0  49701-3 0  9995,2 53967  53.2184 278.9692 0002446 120.3864 239.7370 15.08868268102802,6917.794,95.436,541.351,537.967,0.0
53967.0,STARLINK-4634,PAYLOAD,2024-08-13 12:40:06,15.08816918,0.0001708,53.2158,277.1817,77.867,282.2513,-0.00049627,-8.173e-05,0.0,0 STARLINK-4634,1 53967U 22125D   24226.52785610 -.00008173  00000-0 -49627-3 0  9994,2 53967  53.2158 277.1817 0001708  77.8670 282.2513 15.08816918102867,6917.951,95.439,540.998,538.634,0.0
53967.0,STARLINK-4634,PAYLOAD,2024-08-13 20:37:02,15.08818222,0.0001598,53.2154,275.6944,75.8102,284.3068,-0.00041664,-6.909e-05,0.0,0 STARLINK-4634,1 53967U 22125D   24226.85905905 -.00006909  00000-0 -41664-3 0  9999,2 53967  53.2154 275.6944 0001598  75.8102 284.3068 15.08818222102848,6917.947,95.439,540.917,538.706,0.0
